FENGYUN 1C DEB          
1 31953U 99025CNE 17345.11029846  .00002545  00000-0  11604-2 0  9997
2 31953  99.3623 106.2902 0187075 181.0744 179.0051 14.13729728538045
